[{"OBJECT_NAME":"STARLINK-1039","OBJECT_ID":"2019-074AH","EPOCH":"2026-03-09T14:46:14.325312","MEAN_MOTION":15.21697508,"ECCENTRICITY":0.000318,"INCLINATION":53.0506,"RA_OF_ASC_NODE":215.4382,"ARG_OF_PERICENTER":172.5659,"MEAN_ANOMALY":187.5385,"EPHEMERIS_TYPE":0,"CLASSIFICATION_TYPE":"U","NORAD_CAT_ID":44744,"ELEMENT_SET_NO":999,"REV_AT_EPOCH":34834,"BSTAR":0.0027625,"MEAN_MOTION_DOT":0.00063546,"MEAN_MOTION_DDOT":0},{"OBJECT_NAME":"YAOGAN-43 02C","OBJECT_ID":"2024-156C","EPOCH":"2026-03-09T12:58:27.079680","MEAN_MOTION":15.22982353,"ECCENTRICITY":0.00039016,"INCLINATION":34.9976,"RA_OF_ASC_NODE":104.8158,"ARG_OF_PERICENTER":208.5676,"MEAN_ANOMALY":151.4825,"EPHEMERIS_TYPE":0,"CLASSIFICATION_TYPE":"U","NORAD_CAT_ID":60947,"ELEMENT_SET_NO":999,"REV_AT_EPOCH":8424,"BSTAR":0.000414332,"MEAN_MOTION_DOT":9.954e-5,"MEAN_MOTION_DDOT":0}]
